{"type":"FeatureCollection","features":[{"type":"Feature","properties":{"id":"biwa","ja":"琵琶湖","source":"Natural Earth 10m lakes (public domain), rounded to 1e-4°"},"geometry":{"type":"Polygon","coordinates":[[[136.221,35.385],[136.2489,35.3768],[136.2787,35.3647],[136.2766,35.3368],[136.2528,35.2841],[136.2398,35.2708],[136.1633,35.2258],[136.105,35.2055],[136.0779,35.1905],[136.0603,35.1646],[136.0785,35.1587],[136.0738,35.1493],[136.0564,35.1404],[136.0364,35.1366],[136.0185,35.1354],[135.9999,35.1319],[135.9831,35.1254],[135.9708,35.116],[135.9646,35.1233],[135.9572,35.1036],[135.9531,35.0783],[135.9452,35.0568],[135.9266,35.0477],[135.9193,35.0389],[135.9193,34.9953],[135.9095,34.9788],[135.8984,34.98],[135.8848,34.9903],[135.8733,35.0059],[135.8683,35.0236],[135.8736,35.0389],[135.9216,35.1051],[135.9281,35.1192],[135.9322,35.1713],[135.9369,35.1863],[135.9572,35.219],[136.0164,35.2667],[136.0261,35.2773],[136.0341,35.2923],[136.0679,35.3076],[136.0744,35.3215],[136.0429,35.3865],[136.0432,35.3977],[136.0514,35.4109],[136.0585,35.4366],[136.0709,35.4542],[136.095,35.4442],[136.1135,35.4766],[136.1224,35.4866],[136.1265,35.4716],[136.1283,35.4557],[136.1347,35.4433],[136.1527,35.438],[136.1574,35.4454],[136.1603,35.4625],[136.1633,35.4995],[136.1777,35.4951],[136.1898,35.4869],[136.1968,35.4748],[136.1974,35.4586],[136.1974,35.466],[136.1989,35.4351],[136.2054,35.4062],[136.221,35.385]]]}}]}
